[{"OBJECT_NAME":"STARLINK-34970","OBJECT_ID":"2025-194S","EPOCH":"2026-03-09T13:24:00.112032","MEAN_MOTION":15.05626272,"ECCENTRICITY":0.00017003,"INCLINATION":97.6018,"RA_OF_ASC_NODE":284.1979,"ARG_OF_PERICENTER":72.0647,"MEAN_ANOMALY":288.0765,"EPHEMERIS_TYPE":0,"CLASSIFICATION_TYPE":"U","NORAD_CAT_ID":65450,"ELEMENT_SET_NO":999,"REV_AT_EPOCH":2962,"BSTAR":-0.00012112828,"MEAN_MOTION_DOT":-1.807e-5,"MEAN_MOTION_DDOT":0},{"OBJECT_NAME":"THOR ABLESTAR DEB","OBJECT_ID":"1961-015EX","EPOCH":"2026-03-09T22:58:31.837152","MEAN_MOTION":15.04262729,"ECCENTRICITY":0.00191468,"INCLINATION":67.4961,"RA_OF_ASC_NODE":12.7011,"ARG_OF_PERICENTER":32.2919,"MEAN_ANOMALY":327.9391,"EPHEMERIS_TYPE":0,"CLASSIFICATION_TYPE":"U","NORAD_CAT_ID":461,"ELEMENT_SET_NO":999,"REV_AT_EPOCH":37086,"BSTAR":0.0020469071,"MEAN_MOTION_DOT":0.00028661,"MEAN_MOTION_DDOT":0}]
